[{"OBJECT_NAME":"STARLINK-30864","OBJECT_ID":"2023-171P","EPOCH":"2026-03-09T22:00:01.999584","MEAN_MOTION":15.19809403,"ECCENTRICITY":0.00019525,"INCLINATION":43,"RA_OF_ASC_NODE":283.8256,"ARG_OF_PERICENTER":283.3772,"MEAN_ANOMALY":326.7357,"EPHEMERIS_TYPE":0,"CLASSIFICATION_TYPE":"U","NORAD_CAT_ID":58243,"ELEMENT_SET_NO":999,"REV_AT_EPOCH":573,"BSTAR":0.09583065,"MEAN_MOTION_DOT":0.02319339,"MEAN_MOTION_DDOT":0},{"OBJECT_NAME":"FLOCK 4Q-29","OBJECT_ID":"2023-174BA","EPOCH":"2026-03-09T17:08:34.461600","MEAN_MOTION":15.49539999,"ECCENTRICITY":0.00076444,"INCLINATION":97.3934,"RA_OF_ASC_NODE":157.4868,"ARG_OF_PERICENTER":141.6903,"MEAN_ANOMALY":218.4893,"EPHEMERIS_TYPE":0,"CLASSIFICATION_TYPE":"U","NORAD_CAT_ID":58304,"ELEMENT_SET_NO":999,"REV_AT_EPOCH":13032,"BSTAR":0.00060684089,"MEAN_MOTION_DOT":0.00033498,"MEAN_MOTION_DDOT":0}]
